CYGFM07                 
1 41890U 16078G   26099.79603669  .00023993  00000+0  32423-3 0  9998
2 41890  34.9460 323.6412 0007971 273.7098  86.2715 15.56718348518327
CYGFM03                 
1 41891U 16078H   26099.89530796  .00024548  00000+0  33163-3 0  9999
2 41891  34.9415 324.9471 0007055 264.2055  95.7865 15.56732359518316
FENGYUN 3D              
1 43010U 17072A   26099.85691866 -.00000299  00000+0 -11945-3 0  9994
2 43010  99.0084  73.0653 0000565 210.3682 149.7461 14.19723334435294
NOAA 20 (JPSS-1)        
1 43013U 17073A   26099.84178490  .00000081  00000+0  59515-4 0  9993
2 43013  98.7727  39.9264 0002109  95.5203 264.6214 14.19544593434777
GOES 17                 
1 43226U 18022A   26099.57779280 -.00000181  00000+0  00000+0 0  9990
2 43226   0.7606  86.7140 0001011 269.7160 319.9073  1.00272151 29730
FENGYUN 2H              
1 43491U 18050A   26098.61291329 -.00000123  00000+0  00000+0 0  9998
2 43491   2.8508  79.8999 0001029 165.4605 251.1805  1.00270589 28741
METOP-C                 
1 43689U 18087A   26099.79201105  .00000089  00000+0  60326-4 0  9992
2 43689  98.6704 160.6272 0001604  58.0060 302.1274 14.21507908385114
GEO-KOMPSAT-2A          
1 43823U 18100A   26099.75387395 -.00000342  00000+0  00000+0 0  9991
2 43823   0.0432  43.4294 0002092  23.0791 171.1562  1.00272097 26944
METEOR-M2 2             
1 44387U 19038A   26099.89467959 -.00000158  00000+0 -48559-4 0  9990
2 44387  98.9129  86.1852 0000969 157.5048 202.6173 14.24345840351577
ARKTIKA-M 1             
1 47719U 21016A   26097.71156402 -.00000124  00000+0  00000+0 0  9994
2 47719  63.2167  67.7774 7259502 269.6087  15.0484  2.00615502 37374
FENGYUN 3E              
1 49008U 21062A   26099.84861480  .00000049  00000+0  43747-4 0  9998
2 49008  98.7520 104.0167 0000650 319.7857  40.3271 14.19897951246883
GOES 18                 
1 51850U 22021A   26099.88380804  .00000000  00000+0  00000+0 0  9999
2 51850   0.0196  84.5664 0000783   0.5245 294.2029  1.00270784  5905
NOAA 21 (JPSS-2)        
1 54234U 22150A   26099.80565685  .00000094  00000+0  65611-4 0  9992
2 54234  98.7589  39.7220 0002515  52.2651 307.8753 14.19560881176845
METEOSAT-12 (MTG-I1)    
1 54743U 22170C   26099.73813875 -.00000004  00000+0  00000+0 0  9996
2 54743   0.7461  27.2368 0001376 305.9597 130.2650  1.00275581 12296
TIANMU-1 03             
1 55973U 23039A   26099.84252522  .00015165  00000+0  31926-3 0  9993
2 55973  97.5212 271.2479 0002655   8.7043 351.4251 15.45377372170271
TIANMU-1 04             
1 55974U 23039B   26099.85685251  .00015032  00000+0  31079-3 0  9996
2 55974  97.5148 270.4162 0003149 357.5088   2.6145 15.45910363170284
TIANMU-1 05             
1 55975U 23039C   26099.82033164  .00015503  00000+0  32697-3 0  9994
2 55975  97.5194 270.8647 0002954  31.0694 329.0729 15.45317193170251
TIANMU-1 06             
1 55976U 23039D   26099.85666428  .00015107  00000+0  31305-3 0  9998
2 55976  97.5203 271.4715 0003097  22.3759 337.7625 15.45842990170282
FENGYUN 3G              
1 56232U 23055A   26099.84231887  .00026231  00000+0  40513-3 0  9999
2 56232  49.9941 338.4117 0003733  66.9226 293.2135 15.53876312169383
METEOR-M2 3             
1 57166U 23091A   26099.87366610  .00000014  00000+0  24728-4 0  9994
2 57166  98.6156 156.2283 0004225  25.8660 334.2730 14.24041118144792
TIANMU-1 07             
1 57399U 23101A   26099.86225726  .00006515  00000+0  23115-3 0  9995
2 57399  97.2663 152.1097 0003894  67.9253 292.2401 15.29386746151209
TIANMU-1 08             
1 57400U 23101B   26097.67063122  .00000310  00000+0  13343-4 0  9995
2 57400  97.2656 149.7465 0005123  51.5805 308.5895 15.29523862150865
TIANMU-1 09             
1 57401U 23101C   26098.57041756  .00005923  00000+0  20985-3 0  9999
2 57401  97.2612 150.0802 0004725  69.4700 290.7048 15.29470971151008
TIANMU-1 10             
1 57402U 23101D   26099.84606661  .00009718  00000+0  34286-3 0  9998
2 57402  97.2689 152.3056 0005367  48.1102 312.0596 15.29433525151192
FENGYUN 3F              
1 57490U 23111A   26099.83398562  .00000038  00000+0  38560-4 0  9999
2 57490  98.6871 171.1049 0000771  93.7501 266.3764 14.19927148139169
ARKTIKA-M 2             
1 58584U 23198A   26091.99129222  .00000155  00000+0  00000+0 0  9996
2 58584  63.2180 162.8290 6883118 267.6735  18.8443  2.00607379 16796
TIANMU-1 11             
1 58645U 23205A   26099.82020957  .00005456  00000+0  21287-3 0  9991
2 58645  97.3511 122.4690 0007343 238.8913 121.1606 15.26311504127095
TIANMU-1 12             
1 58646U 23205B   26099.85400546  .00005545  00000+0  21673-3 0  9999
2 58646  97.3500 122.2733 0006109 215.8387 144.2442 15.26252145127087
TIANMU-1 13             
1 58647U 23205C   26099.81830265  .00005617  00000+0  21914-3 0  9999
2 58647  97.3528 122.4906 0006975 196.0079 164.0940 15.26302807127074
TIANMU-1 14             
1 58648U 23205D   26099.80339238  .00005768  00000+0  22511-3 0  9994
2 58648  97.3464 121.7170 0007548 201.9193 158.1724 15.26276183127070
TIANMU-1 19             
1 58660U 23208A   26099.85761525  .00008790  00000+0  30031-3 0  9998
2 58660  97.4413 215.8981 0005080 182.7812 177.3401 15.30524465126873
TIANMU-1 20             
1 58661U 23208B   26099.81781118  .00008709  00000+0  28677-3 0  9998
2 58661  97.4356 216.4233 0006917 196.2176 163.8845 15.31709617126956
TIANMU-1 21             
1 58662U 23208C   26099.83965243  .00010125  00000+0  31152-3 0  9991
2 58662  97.4412 218.8414 0007015 191.1025 169.0064 15.33837740127081
TIANMU-1 22             
1 58663U 23208D   26099.81815315  .00007930  00000+0  27492-3 0  9996
2 58663  97.4409 215.8482 0003220 201.4027 158.7080 15.30087204126879
TIANMU-1 15             
1 58700U 24004A   26099.86636682  .00006120  00000+0  23860-3 0  9991
2 58700  97.4684 286.0744 0006072 220.0121 140.0671 15.26305615125353
TIANMU-1 16             
1 58701U 24004B   26099.84911792  .00006233  00000+0  24270-3 0  9999
2 58701  97.4629 285.3583 0004482 220.3265 139.7641 15.26343700125350
TIANMU-1 17             
1 58702U 24004C   26099.83152459  .00005622  00000+0  22021-3 0  9999
2 58702  97.4658 285.8068 0004272 227.0653 133.0228 15.26193333125340
TIANMU-1 18             
1 58703U 24004D   26099.88267718  .00005807  00000+0  22656-3 0  9999
2 58703  97.4676 286.0759 0003124 214.7928 145.3106 15.26311299125359
INSAT-3DS               
1 58990U 24033A   26099.82432155 -.00000154  00000+0  00000+0 0  9998
2 58990   0.0509  86.7754 0002172 299.6285 190.4864  1.00271154 46381
METEOR-M2 4             
1 59051U 24039A   26099.88118383  .00000045  00000+0  39642-4 0  9990
2 59051  98.6955  60.0605 0007385  16.6416 343.5003 14.22422326109554
GOES 19                 
1 60133U 24119A   26099.74812481 -.00000247  00000+0  00000+0 0  9993
2 60133   0.0322  48.8908 0001046  21.0973 322.1267  1.00270786  6271
FENGYUN 3H              
1 65815U 25219A   26099.82994404  .00000069  00000+0  52880-4 0  9991
2 65815  98.6723  41.9454 0000672  78.5469 281.5783 14.19941270 27688
OSCAR 7 (AO-7)          
1 07530U 74089B   26099.53022324 -.00000039  00000+0  45704-4 0  9996
2 07530 101.9948 112.0521 0011869 261.8788 219.7831 12.53696937351917
PHASE 3B (AO-10)        
1 14129U 83058B   26098.44257953 -.00000094  00000+0  00000+0 0  9997
2 14129  25.9021 231.2193 6035924  96.3991 331.2522  2.05873429294053
UOSAT 2 (UO-11)         
1 14781U 84021B   26099.88916123  .00001390  00000+0  14754-3 0  9996
2 14781  97.8001  66.2605 0008931  56.6237 303.5835 14.90621600246955
LUSAT (LO-19)           
1 20442U 90005G   26099.52912054  .00000152  00000+0  70882-4 0  9996
2 20442  98.8907 119.4266 0012420  51.3311 308.8982 14.34101736892554
EYESAT A (AO-27)        
1 22825U 93061C   26099.47400686  .00000104  00000+0  56798-4 0  9992
2 22825  98.6925 166.8980 0007376 306.4973  53.5530 14.30923953697173
ITAMSAT (IO-26)         
1 22826U 93061D   26099.75346146  .00000116  00000+0  60676-4 0  9997
2 22826  98.6873 167.0881 0007754 286.5383  73.4947 14.31349149697524
RADIO ROSTO (RS15)      
1 23439U 94085A   26099.82538999 -.00000031  00000+0  32663-3 0  9993
2 23439  64.8180  53.7730 0153861  16.2799 344.2990 11.27583844288195
JAS-2 (FO-29)           
1 24278U 96046B   26099.55056311 -.00000011  00000+0  28072-4 0  9995
2 24278  98.5328 317.7885 0348820 274.5731  81.5651 13.53270906463884
TECHSAT 1B (GO-32)      
1 25397U 98043D   26099.50689907  .00000083  00000+0  55921-4 0  9996
2 25397  99.0055  90.5415 0002232  69.7321 290.4096 14.24414878441559
ISS (ZARYA)             
1 25544U 98067A   26099.81181649  .00006374  00000+0  12437-3 0  9993
2 25544  51.6329 278.4805 0006426 293.1753  66.8558 15.48850892561156
PCSAT (NO-44)           
1 26931U 01043C   26099.64033269  .00000184  00000+0  99678-4 0  9993
2 26931  67.0506  61.5605 0006771 264.4967  95.5362 14.31929354280639
SAUDISAT 1C (SO-50)     
1 27607U 02058C   26099.77540351  .00001053  00000+0  14169-3 0  9997
2 27607  64.5534 340.6261 0075522 274.9119  84.3367 14.82901253254318
CUTE-1 (CO-55)          
1 27844U 03031E   26099.54437592  .00000348  00000+0  16943-3 0  9997
2 27844  98.6768 108.9612 0010127  31.5531 328.6253 14.24293238181903
CUBESAT XI-IV (CO-57)   
1 27848U 03031J   26099.49854759  .00000295  00000+0  14856-3 0  9995
2 27848  98.6797 108.6835 0010332  48.6664 311.5402 14.23584294181605
MOZHAETS 4 (RS22)       
1 27939U 03042A   26099.83593602  .00001585  00000+0  25290-3 0  9990
2 27939  98.3467 282.2689 0012292 122.0122 351.3071 14.73347379205489
CUBESAT XI-V            
1 28895U 05043F   26099.84048012  .00001547  00000+0  25186-3 0  9998
2 28895  98.2896 254.0665 0015163  65.3771 294.9013 14.72454237 91691
CUTE-1.7+APD II (CO-65) 
1 32785U 08021C   26099.88790947  .00006047  00000+0  38835-3 0  9990
2 32785  97.8247  79.9385 0007277 259.1118 100.9291 15.08819348974891
